ONEWEB-0377             
1 49303U 21090AA  23261.68450652  .00000128  00000+0  28246-3 0  9996
2 49303  87.9164 114.0434 0001802  74.6024 285.5308 13.20771031 99461
ONEWEB-0378             
1 49304U 21090AB  23261.57191297 -.00000023  00000+0 -88209-4 0  9994
2 49304  87.9178 114.0613 0001597  92.6495 267.4821 13.20770491 97432
ONEWEB-0379             
1 49305U 21090AC  23261.71754171  .00000177  00000+0  44418-3 0  9998
2 49305  87.8991 129.2685 0001789  83.0934 277.0399 13.14500549 97162
ONEWEB-0380             
1 49306U 21090AD  23261.58384358  .00000022  00000+0  22497-4 0  9993
2 49306  87.9253 144.5130 0001724  71.8660 288.2660 13.19725800 94188
ONEWEB-0381             
1 49307U 21090AE  23261.66976413  .00000069  00000+0  13900-3 0  9991
2 49307  87.9226 113.9890 0001642  79.3650 280.7669 13.20770660 98796
ONEWEB-0382             
1 49308U 21090AF  23261.58136133 -.00001570  00000+0 -38947-2 0  9997
2 49308  87.9166 114.0627 0001304  81.8100 278.3182 13.20778464 97470
ONEWEB-0383             
1 49309U 21090AG  23261.55896722  .00000186  00000+0  46677-3 0  9992
2 49309  87.9000 129.2824 0001709  87.5753 272.5572 13.14505002 95871
ONEWEB-0384             
1 49310U 21090AH  23261.65293029 -.00000049  00000+0 -15239-3 0  9996
2 49310  87.9178 114.0452 0001266 102.1114 258.0161 13.20771306 98809
